{
    "links": {
        "self": "http://www.neowsapp.com/rest/v1/neo/3727350?api_key=iIulBulltgU6a56xZRHN4H3l9WmuAYTsLGpBGhQ2"
    },
    "id": "3727350",
    "neo_reference_id": "3727350",
    "name": "(2015 RX82)",
    "designation": "2015 RX82",
    "nasa_jpl_url": "http://ssd.jpl.nasa.gov/sbdb.cgi?sstr=3727350",
    "absolute_magnitude_h": 23.1,
    "estimated_diameter": {
        "kilometers": {
            "estimated_diameter_min": 0.063760979,
            "estimated_diameter_max": 0.1425738833
        },
        "meters": {
            "estimated_diameter_min": 63.7609789875,
            "estimated_diameter_max": 142.5738833281
        },
        "miles": {
            "estimated_diameter_min": 0.0396192233,
            "estimated_diameter_max": 0.0885912765
        },
        "feet": {
            "estimated_diameter_min": 209.1895703015,
            "estimated_diameter_max": 467.7620993781
        }
    },
    "is_potentially_hazardous_asteroid": false,
    "close_approach_data": [
        {
            "close_approach_date": "2015-09-26",
            "close_approach_date_full": "2015-Sep-26 09:00",
            "epoch_date_close_approach": 1443258000000,
            "relative_velocity": {
                "kilometers_per_second": "7.9338437285",
                "kilometers_per_hour": "28561.8374227469",
                "miles_per_hour": "17747.2150363729"
            },
            "miss_distance": {
                "astronomical": "0.2510336542",
                "lunar": "97.6520914838",
                "kilometers": "37554099.966636554",
                "miles": "23335035.6592862852"
            },
            "orbiting_body": "Earth"
        }
    ],
    "orbital_data": {
        "orbit_id": "16",
        "orbit_determination_date": "2017-04-06 08:31:59",
        "first_observation_date": "2015-09-12",
        "last_observation_date": "2015-10-14",
        "data_arc_in_days": 32,
        "observations_used": 44,
        "orbit_uncertainty": "6",
        "minimum_orbit_intersection": ".227371",
        "jupiter_tisserand_invariant": "3.481",
        "epoch_osculation": "2459000.5",
        "eccentricity": ".4519764097221813",
        "semi_major_axis": "2.220002290107299",
        "inclination": "12.56317367297265",
        "ascending_node_longitude": "349.9838713949219",
        "orbital_period": "1208.171427049745",
        "perihelion_distance": "1.216613625449582",
        "perihelion_argument": "23.44033054262293",
        "aphelion_distance": "3.223390954765016",
        "perihelion_time": "2458507.151965137878",
        "mean_anomaly": "147.0033875772591",
        "mean_motion": ".2979709600309704",
        "equinox": "J2000",
        "orbit_class": {
            "orbit_class_type": "AMO",
            "orbit_class_description": "Near-Earth asteroid orbits similar to that of 1221 Amor",
            "orbit_class_range": "1.017 AU < q (perihelion) < 1.3 AU"
        }
    },
    "is_sentry_object": false
}